{
    "links": {
        "self": "http://www.neowsapp.com/rest/v1/neo/3640991?api_key=iIulBulltgU6a56xZRHN4H3l9WmuAYTsLGpBGhQ2"
    },
    "id": "3640991",
    "neo_reference_id": "3640991",
    "name": "(2013 LL25)",
    "designation": "2013 LL25",
    "nasa_jpl_url": "http://ssd.jpl.nasa.gov/sbdb.cgi?sstr=3640991",
    "absolute_magnitude_h": 22.7,
    "estimated_diameter": {
        "kilometers": {
            "estimated_diameter_min": 0.0766575574,
            "estimated_diameter_max": 0.1714115092
        },
        "meters": {
            "estimated_diameter_min": 76.6575573531,
            "estimated_diameter_max": 171.4115092306
        },
        "miles": {
            "estimated_diameter_min": 0.0476327831,
            "estimated_diameter_max": 0.1065101409
        },
        "feet": {
            "estimated_diameter_min": 251.5011804664,
            "estimated_diameter_max": 562.3737359442
        }
    },
    "is_potentially_hazardous_asteroid": false,
    "close_approach_data": [
        {
            "close_approach_date": "2013-06-12",
            "close_approach_date_full": "2013-Jun-12 12:58",
            "epoch_date_close_approach": 1371041880000,
            "relative_velocity": {
                "kilometers_per_second": "19.6026756652",
                "kilometers_per_hour": "70569.6323946916",
                "miles_per_hour": "43849.2251954682"
            },
            "miss_distance": {
                "astronomical": "0.0524936681",
                "lunar": "20.4200368909",
                "kilometers": "7852940.936246947",
                "miles": "4879591.2281319886"
            },
            "orbiting_body": "Earth"
        }
    ],
    "orbital_data": {
        "orbit_id": "11",
        "orbit_determination_date": "2017-04-06 08:45:37",
        "first_observation_date": "2013-06-10",
        "last_observation_date": "2013-06-13",
        "data_arc_in_days": 3,
        "observations_used": 33,
        "orbit_uncertainty": "7",
        "minimum_orbit_intersection": ".0195013",
        "jupiter_tisserand_invariant": "3.152",
        "epoch_osculation": "2459000.5",
        "eccentricity": ".6854475028763112",
        "semi_major_axis": "2.382670851205696",
        "inclination": "10.74954299965363",
        "ascending_node_longitude": "258.205300281713",
        "orbital_period": "1343.366471185643",
        "perihelion_distance": ".7494750660705768",
        "perihelion_argument": "75.4413836978177",
        "aphelion_distance": "4.015866636340815",
        "perihelion_time": "2459194.082874538099",
        "mean_anomaly": "308.1229907634898",
        "mean_motion": ".2679834637247328",
        "equinox": "J2000",
        "orbit_class": {
            "orbit_class_type": "APO",
            "orbit_class_description": "Near-Earth asteroid orbits which cross the Earth’s orbit similar to that of 1862 Apollo",
            "orbit_class_range": "a (semi-major axis) > 1.0 AU; q (perihelion) < 1.017 AU"
        }
    },
    "is_sentry_object": false
}